#dP2021 12 14  0  0  0.00000000      96 __u+U ITR00 FIT  IAC
## 2188 172800.00000000   900.00000000 59562 0.0000000000000
+  126   C01C02C03C04C05C07C08C09C10C11C12C13C14C16C19C20C21
+        C22C23C24C25C26C27C28C29C30C32C33C34C35C36C37C38C39
+        C40C41C42C43C44C45C46C59C60E01E02E03E04E05E07E08E09
+        E11E12E13E14E15E18E19E21E24E25E26E27E30E31E33E36G01
+        G02G03G04G05G06G07G08G09G10G12G13G14G15G16G17G18G19
+        G20G21G22G23G24G25G26G27G28G29G30G31G32J01J02J03J07
+        R01R02R03R04R05R06R07R08R09R10R11R12R13R14R15R16R17
+        R18R19R20R21R22R23R24  0  0  0  0  0  0  0  0  0  0
++        13 12 13 13 12  9  9  9  9  9  9  9  8  9  7  7  7
++         7  7  7  7  7  7  7  7  7  7  7  7  7  7  7  8  8
++         8  7  7  7  8  8  7  0 12  4  4  4  4  4  4  4  4
++         4  4  4  4  4  5  6  4  5  4  5  4  4  5  5  5  4
++         4  4  4  4  4  3  3  4  3  4  3  3  4  4  4  3  4
++         4  4  4  3  4  4  4  3  4  4  3  4  4  8  8  8 14
++         7  6  6  6  5 13  6  6  6 13  7  5  7  6  6  0  6
++         6  7  7  6  7 13  6  0  0  0  0  0  0  0  0  0  0
%c M  cc GPS ccc cccc cccc cccc cccc ccccc ccccc ccccc ccccc
%c cc cc ccc ccc cccc cccc cccc cccc ccccc ccccc ccccc ccccc
%f  0.0000000  0.000000000  0.00000000000  0.000000000000000
%f  0.0000000  0.000000000  0.00000000000  0.000000000000000
%i    0    0    0    0      0      0      0      0         0
%i    0    0    0    0      0      0      0      0         0
/* INFORMATION & ANALYSIS CENTER (IAC)            RAPID DATA
/* S/V CLOCKS ARE ALIGNED TO GNSS TIME                      
/* G:C1WC2W R:C1PC2P E:C1XC5X C:C2IC6I J:C1CC2S             
/* PCV:IGS14_2186 OL/AL:FES2004  NONE     YN ORB:CoN CLK:CoN
*  2021 12 14 19  0  0.00000000
PC01 -34268.720887  24545.574283    328.746008   -344.991159
PC02   4339.132127  41944.285989    175.047996    806.922957
PC03 -14840.462533  39435.350408    934.806890    365.509887
PC04 -39596.150185  14420.400506    526.927463    375.834536
PC05  21856.741950  36055.247407    -88.546037    333.455415
PC07 -10798.641411  40671.867391  -1472.386224    122.001226
PC08   2754.975525  29040.541554  30522.049466    -22.771961
PC09  -7167.759931  24906.494535 -33028.830778   -348.457382
PC10  -4416.143825  41282.586445   5952.204485    137.386403
PC11 -14692.145039 -11444.462210 -20696.973107   -333.351164
PC12   5685.385670 -15811.676623 -22239.862645   -426.774367
PC13   6583.706964  31663.795880  27329.990746   -178.074871
PC14  -7213.202519 -19179.342821  18981.718502    497.447018
PC16 -19801.432713  24146.553506 -28317.560040     23.794756
PC19  13047.235784   9837.904804 -22601.294255    922.705641
PC20   1462.225400  24275.193094 -13660.118658   -794.721912
PC21  11744.103038 -24999.585106  -4023.368392   -947.490124
PC22  17560.053276 -10844.554013 -18796.530416   -966.413733
PC23 -19157.404687   -136.357805 -20285.846452   -963.166464
PC24 -10011.024124 -23731.132358  10687.733367   -951.709486
PC25 -21534.581529 -15994.715126  -7654.098868   -810.014371
PC26   5064.625362 -17258.894112  21315.318941    807.902021
PC27 -15443.151445  15038.330868  17716.498322    645.172315
PC28 -27113.452440   6191.478965   2272.600139      8.887173
PC29  23088.576289   5545.413754  14657.375190    487.614925
PC30   5074.886831  15147.166348  22879.395709    488.758001
PC32 -11605.066395  25043.150070   4115.228341   -957.094803
PC33 -13085.435204  -9891.741240  22575.990219   -960.821699
PC34  -6137.674022 -14922.672331 -22774.209274   -514.756504
PC35  26998.665799  -6780.307799  -1701.086877     46.076542
PC36  21066.287029  16824.290938   7247.283773   -832.246748
PC37  -6342.009352  16436.850730 -21634.716839   -912.800823
PC38  -7143.571594  24784.031946  33412.109859    196.619982
PC39 -23351.494305  24592.236981 -25178.676257     34.340082
PC40 -17494.795143  37827.003651  -5897.207630    226.539589
PC41 -17582.281030  10447.151959  19034.116012   -916.328852
PC42   -871.804490 -24731.686135  12944.065849   -933.546611
PC43 -22691.796059  -6111.990782 -15067.716817   -954.440895
PC44  15047.850091 -15627.531347 -17539.865493    498.187788
PC45  19002.216996     11.242541  20446.224669    626.914203
PC46  11144.829293  23739.211194  -9603.466734    -60.516491
PC59      0.000000      0.000000      0.000000 999999.999999
PC60   7291.421229  41500.273508   1591.402794     -0.341582
PE01   7100.975246 -23053.883269  17149.319069   -537.991018
PE02  -6990.221631  23190.395392 -17030.812238    266.851998
PE03 -17632.941096  22658.259044  -7194.382979   -506.350250
PE04    430.577907 -20585.009357  21262.188477   -920.778225
PE05 -24809.653387  11452.969124  11377.298679   -226.474525
PE07  17440.956118   6278.244672 -23080.954039   -617.591707
PE08    -21.610705  20303.422607 -21543.712669   5888.888921
PE09 -17510.265871  -5921.664681  23111.951171   5430.002834
PE11 -26328.094725 -12306.992729  -5642.206203   4892.005406
PE12 -10020.891046 -17843.268626 -21384.679159   4860.921520
PE13  26081.363099  12528.067704   6255.217971    424.675899
PE14 -17379.949003  15844.035818   6127.851967  -1674.606148
PE15   9961.362882  17755.785967  21498.883631    775.277934
PE18  13862.160567 -23650.158911 -16885.925378  -1841.994685
PE19  19309.401036 -21885.659828   4909.490776    452.139347
PE21  15913.968890  -4883.088505  24477.128068   -705.286847
PE24 -15719.991674 -18145.041584 -17304.447805  -1279.767422
PE25 -15969.781146   4629.605092 -24481.607344   -556.869188
PE26  26378.982062   -752.635116 -13406.567552   -569.659181
PE27  16077.177112  17062.812891  18086.203231   -186.813435
PE30   5908.150246  29017.254338    -28.721714   -109.643469
PE31  -6771.992199 -28788.330224  -1094.946837   -489.361683
PE33  11968.247009 -12493.732808 -24006.886828   -461.445526
PE36 -26787.598110     48.094974  12604.296014   -303.831907
PG01 -22166.373235 -14478.125515  -4063.116317    484.099262
PG02   4871.411170  17188.518148  20286.343395   -645.655823
PG03 -12577.991556 -15987.863801  17028.296047    -41.705833
PG04 -16734.465092  -5976.598465  19764.545188   -199.029714
PG05   5790.336822  25444.022350  -4657.618622    -64.407783
PG06 -11652.666883  10181.017722  21664.260791    142.762120
PG07 -24229.804780  -4095.367984 -10311.812204    290.799234
PG08  -6667.352929 -13692.556250 -21753.430377    -48.080952
PG09 -22865.130896   4854.995079  12566.521481   -360.433976
PG10  11912.132653 -14295.415167 -18705.778250   -268.711461
PG12  10460.459992  18593.607304  15649.844521   -140.759174
PG13  -2264.243252  16800.289660 -20561.528388    229.474162
PG14 -12941.434489  13785.687940 -18630.765690    -55.156293
PG15   9145.861008  13290.922921 -21487.657257    -99.172174
PG16   -623.668574 -26231.580890  -2106.445860   -440.315160
PG17 -22789.196856  13670.675098    765.440819    547.449087
PG18  23620.687746   3339.033835 -11787.048678    279.494857
PG19 -19157.344623  16146.301987   8287.978511     92.186207
PG20    631.065339  25860.311354   6589.036109    517.641632
PG21 -17843.763854 -15952.242079 -11434.228843    153.720704
PG22 -11185.401396 -22076.947905  10093.087661   -441.453565
PG23  14981.920553  -1858.815351 -21869.049227     21.894459
PG24  20474.471369  15179.946101  -8472.494399    274.619152
PG25  14949.955056   6851.151684  20642.018914    255.724224
PG26   5961.565718 -22972.701555  11539.637873    164.964553
PG27   4478.946832 -18254.045508 -18792.270868   -231.010181
PG28  -9642.631954  20823.017816 -13027.697335    443.134491
PG29  21451.976925     18.413240  15660.289293   -453.971833
PG30 -19150.911052   4728.736542 -17825.279744   -499.287648
PG31  10057.482280 -11837.996835  21464.127753   -155.032747
PG32  20227.217713 -16677.763199   3703.278853    -35.155495
PJ01 -34338.307396  23440.421793  11843.762876     96.750353
PJ02 -19641.215713  25964.652841 -22197.173533     -0.370489
PJ03 -29559.481681  25923.032523  20495.162216     -9.247507
PJ07 -25374.999268  33681.735898    -23.567351     -0.029681
PR01    837.961630 -18766.047770  17256.309708     89.489420
PR02 -11589.167558  -1426.558781  22721.121846    503.259038
PR03 -15934.131756  14890.961126  13317.559388     48.142405
PR04 -11361.374642  22592.692174  -3378.012082    118.805523
PR05   -597.424834  17852.250296 -18218.405142     84.189049
PR06  12182.103361    229.033712 -22421.515127    -21.379748
PR07  15877.185286 -15369.669703 -12664.179894    -39.218662
PR08  11189.299254 -22634.738333   3563.643937    -62.541273
PR09  16263.194271  13116.882068  14599.204212     28.740203
PR10  11426.059434  -2039.758787  22712.641153    -77.973915
PR11   -409.053135 -17643.640527  18431.119181     48.926831
PR12 -11779.134122 -22484.396744   2419.875756    286.512157
PR13 -16139.868948 -14095.524827 -13850.224225    -15.565592
PR14 -10810.656044   3388.909224 -22844.488969     72.091149
PR15    603.321160  18128.923065 -17918.604542     99.594562
PR16      0.000000      0.000000      0.000000 999999.999999
PR17 -23445.028962   4020.983244   9169.209253    483.559351
PR18 -10614.106005   9396.600288  21240.113792    100.486056
PR19   6577.237628  10219.427345  22434.388170   -170.681511
PR20  23279.575800   4988.823754   9118.986653    -61.188554
PR21  22866.580766  -4445.314957 -10421.615781   -262.200394
PR22   9551.849954  -9482.845218 -21652.861560   -151.456151
PR23 -13189.909585  -9099.710807 -19846.079367    -23.302910
PR24 -23701.415122  -4354.673036  -8314.061925     71.197403
EOF
